{"type": "FeatureCollection", "features": [ {"type": "Feature", "properties": {"norad_id": 34141, "name": "COSMOS 2251 DEB", "group": "cosmos-2251-debris", "lat": 69.2795053581095, "lon": 58.26546631987968, "alt_km": 688.7622748178646, "timestamp": "2025-12-23T07:45:09.798976+00:00", "meta": {"OBJECT_NAME": "COSMOS 2251 DEB", "OBJECT_ID": "1993-036LN", "EPOCH": "2025-12-22T12:06:19.785888", "MEAN_MOTION": 14.49332316, "ECCENTRICITY": 0.00464942, "INCLINATION": 74.0109, "RA_OF_ASC_NODE": 10.5163, "ARG_OF_PERICENTER": 93.1805, "MEAN_ANOMALY": 34.0549, "EPHEMERIS_TYPE": 0, "CLASSIFICATION_TYPE": "U", "NORAD_CAT_ID": 34141, "ELEMENT_SET_NO": 999, "REV_AT_EPOCH": 87835, "BSTAR": 0.0013928106, "MEAN_MOTION_DOT": 5.369e-05, "MEAN_MOTION_DDOT": 0}, "tle": {"line1": "1 34141U 93036LN  25356.50439567  .00005369  00000+0  13928-2 0  9991", "line2": "2 34141  74.0109  10.5163 0046494  93.1805  34.0549 14.49332316878357"}}, "geometry": {"type": "Point", "coordinates": [58.26546631987968, 69.2795053581095]}}, {"type": "Feature", "properties": {"norad_id": 34270, "name": "COSMOS 2251 DEB", "group": "cosmos-2251-debris", "lat": -71.77038722682109, "lon": -134.2889225722049, "alt_km": 714.3567058759127, "timestamp": "2025-12-23T07:45:09.798986+00:00", "meta": {"OBJECT_NAME": "COSMOS 2251 DEB", "OBJECT_ID": "1993-036LQ", "EPOCH": "2025-12-22T22:17:31.910784", "MEAN_MOTION": 14.65242865, "ECCENTRICITY": 0.00479728, "INCLINATION": 74.0116, "RA_OF_ASC_NODE": 286.9915, "ARG_OF_PERICENTER": 76.7233, "MEAN_ANOMALY": 283.9279, "EPHEMERIS_TYPE": 0, "CLASSIFICATION_TYPE": "U", "NORAD_CAT_ID": 34270, "ELEMENT_SET_NO": 999, "REV_AT_EPOCH": 89245, "BSTAR": 0.00070883355, "MEAN_MOTION_DOT": 3.855e-05, "MEAN_MOTION_DDOT": 0}, "tle": {"line1": "1 34270U 93036LQ  25356.92884156  .00003855  00000+0  70883-3 0  9990", "line2": "2 34270  74.0116 286.9915 0047972  76.7233 283.9279 14.65242865892455"}}, "geometry": {"type": "Point", "coordinates": [-134.2889225722049, -71.77038722682109]}}, {"type": "Feature", "properties": {"norad_id": 34271, "name": "COSMOS 2251 DEB", "group": "cosmos-2251-debris", "lat": 71.42469109024877, "lon": -122.72593300034508, "alt_km": 661.9796006650831, "timestamp": "2025-12-23T07:45:09.798996+00:00", "meta": {"OBJECT_NAME": "COSMOS 2251 DEB", "OBJECT_ID": "1993-036LR", "EPOCH": "2025-12-22T11:55:42.494304", "MEAN_MOTION": 14.70960843, "ECCENTRICITY": 0.00182961, "INCLINATION": 74.0192, "RA_OF_ASC_NODE": 180.3666, "ARG_OF_PERICENTER": 233.6422, "MEAN_ANOMALY": 154.5734, "EPHEMERIS_TYPE": 0, "CLASSIFICATION_TYPE": "U", "NORAD_CAT_ID": 34271, "ELEMENT_SET_NO": 999, "REV_AT_EPOCH": 88378, "BSTAR": 0.0022763733, "MEAN_MOTION_DOT": 0.00013988, "MEAN_MOTION_DDOT": 0}, "tle": {"line1": "1 34271U 93036LR  25356.49701961  .00013988  00000+0  22764-2 0  9997", "line2": "2 34271  74.0192 180.3666 0018296 233.6422 154.5734 14.70960843883785"}}, "geometry": {"type": "Point", "coordinates": [-122.72593300034508, 71.42469109024877]}}, {"type": "Feature", "properties": {"norad_id": 34273, "name": "COSMOS 2251 DEB", "group": "cosmos-2251-debris", "lat": 73.40290940174914, "lon": 173.367654260866, "alt_km": 682.9045222278073, "timestamp": "2025-12-23T07:45:09.799006+00:00", "meta": {"OBJECT_NAME": "COSMOS 2251 DEB", "OBJECT_ID": "1993-036LT", "EPOCH": "2025-12-22T06:58:03.451008", "MEAN_MOTION": 14.61305097, "ECCENTRICITY": 0.00135807, "INCLINATION": 74.0358, "RA_OF_ASC_NODE": 69.1662, "ARG_OF_PERICENTER": 194.9715, "MEAN_ANOMALY": 229.1706, "EPHEMERIS_TYPE": 0, "CLASSIFICATION_TYPE": "U", "NORAD_CAT_ID": 34273, "ELEMENT_SET_NO": 999, "REV_AT_EPOCH": 88761, "BSTAR": 0.00082891395, "MEAN_MOTION_DOT": 4.071e-05, "MEAN_MOTION_DDOT": 0}, "tle": {"line1": "1 34273U 93036LT  25356.29031772  .00004071  00000+0  82891-3 0  9994", "line2": "2 34273  74.0358  69.1662 0013580 194.9715 229.1706 14.61305097887614"}}, "geometry": {"type": "Point", "coordinates": [173.367654260866, 73.40290940174914]}}, {"type": "Feature", "properties": {"norad_id": 34274, "name": "COSMOS 2251 DEB", "group": "cosmos-2251-debris", "lat": -44.67154636997806, "lon": 31.70156115078836, "alt_km": 690.2959735880559, "timestamp": "2025-12-23T07:45:09.799016+00:00", "meta": {"OBJECT_NAME": "COSMOS 2251 DEB", "OBJECT_ID": "1993-036LU", "EPOCH": "2025-12-22T14:30:07.644096", "MEAN_MOTION": 14.64886943, "ECCENTRICITY": 0.00214539, "INCLINATION": 74.0037, "RA_OF_ASC_NODE": 49.5609, "ARG_OF_PERICENTER": 199.0285, "MEAN_ANOMALY": 284.8567, "EPHEMERIS_TYPE": 0, "CLASSIFICATION_TYPE": "U", "NORAD_CAT_ID": 34274, "ELEMENT_SET_NO": 999, "REV_AT_EPOCH": 88820, "BSTAR": 0.0010110757, "MEAN_MOTION_DOT": 5.396e-05, "MEAN_MOTION_DDOT": 0}, "tle": {"line1": "1 34274U 93036LU  25356.60425514  .00005396  00000+0  10111-2 0  9997", "line2": "2 34274  74.0037  49.5609 0021453 199.0285 284.8567 14.64886943888204"}}, "geometry": {"type": "Point", "coordinates": [31.70156115078836, -44.67154636997806]}}, {"type": "Feature", "properties": {"norad_id": 34276, "name": "COSMOS 2251 DEB", "group": "cosmos-2251-debris", "lat": -36.27059865742785, "lon": 53.065253069755116, "alt_km": 713.603095795922, "timestamp": "2025-12-23T07:45:09.799026+00:00", "meta": {"OBJECT_NAME": "COSMOS 2251 DEB", "OBJECT_ID": "1993-036LW", "EPOCH": "2025-12-21T23:47:17.316960", "MEAN_MOTION": 14.57284799, "ECCENTRICITY": 0.00222541, "INCLINATION": 74.0239, "RA_OF_ASC_NODE": 67.7315, "ARG_OF_PERICENTER": 213.6612, "MEAN_ANOMALY": 323.8377, "EPHEMERIS_TYPE": 0, "CLASSIFICATION_TYPE": "U", "NORAD_CAT_ID": 34276, "ELEMENT_SET_NO": 999, "REV_AT_EPOCH": 88727, "BSTAR": 0.00065538143, "MEAN_MOTION_DOT": 2.946e-05, "MEAN_MOTION_DDOT": 0}, "tle": {"line1": "1 34276U 93036LW  25355.99117265  .00002946  00000+0  65538-3 0  9993", "line2": "2 34276  74.0239  67.7315 0022254 213.6612 323.8377 14.57284799887275"}}, "geometry": {"type": "Point", "coordinates": [53.065253069755116, -36.27059865742785]}}, {"type": "Feature", "properties": {"norad_id": 34297, "name": "COSMOS 2251 DEB", "group": "cosmos-2251-debris", "lat": -73.98049231230102, "lon": 169.77504166842365, "alt_km": 770.8225661340803, "timestamp": "2025-12-23T07:45:09.799036+00:00", "meta": {"OBJECT_NAME": "COSMOS 2251 DEB", "OBJECT_ID": "1993-036MT", "EPOCH": "2025-12-22T20:47:01.827168", "MEAN_MOTION": 14.36637665, "ECCENTRICITY": 0.00176724, "INCLINATION": 74.0487, "RA_OF_ASC_NODE": 265.6383, "ARG_OF_PERICENTER": 332.478, "MEAN_ANOMALY": 93.5198, "EPHEMERIS_TYPE": 0, "CLASSIFICATION_TYPE": "U", "NORAD_CAT_ID": 34297, "ELEMENT_SET_NO": 999, "REV_AT_EPOCH": 88210, "BSTAR": 0.00013403277, "MEAN_MOTION_DOT": 3.69e-06, "MEAN_MOTION_DDOT": 0}, "tle": {"line1": "1 34297U 93036MT  25356.86599337  .00000369  00000+0  13403-3 0  9998", "line2": "2 34297  74.0487 265.6383 0017672 332.4780  93.5198 14.36637665882101"}}, "geometry": {"type": "Point", "coordinates": [169.77504166842365, -73.98049231230102]}}, {"type": "Feature", "properties": {"norad_id": 34299, "name": "COSMOS 2251 DEB", "group": "cosmos-2251-debris", "lat": 17.242456333040305, "lon": 124.74710175867912, "alt_km": 181.6391541001858, "timestamp": "2025-12-23T07:45:09.799046+00:00", "meta": {"OBJECT_NAME": "COSMOS 2251 DEB", "OBJECT_ID": "1993-036MV", "EPOCH": "2025-12-22T22:12:31.545504", "MEAN_MOTION": 16.15901291, "ECCENTRICITY": 0.00098197, "INCLINATION": 73.9583, "RA_OF_ASC_NODE": 310.8431, "ARG_OF_PERICENTER": 131.3448, "MEAN_ANOMALY": 228.8646, "EPHEMERIS_TYPE": 0, "CLASSIFICATION_TYPE": "U", "NORAD_CAT_ID": 34299, "ELEMENT_SET_NO": 999, "REV_AT_EPOCH": 89172, "BSTAR": 0.008554635, "MEAN_MOTION_DOT": 0.05990517, "MEAN_MOTION_DDOT": 0.25518085}, "tle": {"line1": "1 34299U 93036MV  25356.92536511  .05990517  25518+0  85546-2 0  9997", "line2": "2 34299  73.9583 310.8431 0009819 131.3448 228.8646 16.15901291891723"}}, "geometry": {"type": "Point", "coordinates": [124.74710175867912, 17.242456333040305]}}, {"type": "Feature", "properties": {"norad_id": 34301, "name": "COSMOS 2251 DEB", "group": "cosmos-2251-debris", "lat": -63.282572524529314, "lon": 0.4018868318902342, "alt_km": 614.7942022586294, "timestamp": "2025-12-23T07:45:09.799056+00:00", "meta": {"OBJECT_NAME": "COSMOS 2251 DEB", "OBJECT_ID": "1993-036MX", "EPOCH": "2025-12-22T19:53:22.425792", "MEAN_MOTION": 14.85014101, "ECCENTRICITY": 0.00102276, "INCLINATION": 74.0055, "RA_OF_ASC_NODE": 146.643, "ARG_OF_PERICENTER": 209.688, "MEAN_ANOMALY": 277.0489, "EPHEMERIS_TYPE": 0, "CLASSIFICATION_TYPE": "U", "NORAD_CAT_ID": 34301, "ELEMENT_SET_NO": 999, "REV_AT_EPOCH": 88550, "BSTAR": 0.0032611142, "MEAN_MOTION_DOT": 0.00027935, "MEAN_MOTION_DDOT": 0}, "tle": {"line1": "1 34301U 93036MX  25356.82873178  .00027935  00000+0  32611-2 0  9997", "line2": "2 34301  74.0055 146.6430 0010227 209.6880 277.0489 14.85014101885501"}}, "geometry": {"type": "Point", "coordinates": [0.4018868318902342, -63.282572524529314]}}, {"type": "Feature", "properties": {"norad_id": 34302, "name": "COSMOS 2251 DEB", "group": "cosmos-2251-debris", "lat": 45.284174350191286, "lon": 120.85645254393478, "alt_km": 757.0645521333809, "timestamp": "2025-12-23T07:45:09.799067+00:00", "meta": {"OBJECT_NAME": "COSMOS 2251 DEB", "OBJECT_ID": "1993-036MY", "EPOCH": "2025-12-22T16:50:22.056288", "MEAN_MOTION": 14.39366174, "ECCENTRICITY": 0.00793482, "INCLINATION": 74.1781, "RA_OF_ASC_NODE": 105.3509, "ARG_OF_PERICENTER": 317.8099, "MEAN_ANOMALY": 110.4309, "EPHEMERIS_TYPE": 0, "CLASSIFICATION_TYPE": "U", "NORAD_CAT_ID": 34302, "ELEMENT_SET_NO": 999, "REV_AT_EPOCH": 87864, "BSTAR": 0.00052424455, "MEAN_MOTION_DOT": 1.665e-05, "MEAN_MOTION_DDOT": 0}, "tle": {"line1": "1 34302U 93036MY  25356.70164417  .00001665  00000+0  52424-3 0  9991", "line2": "2 34302  74.1781 105.3509 0079348 317.8099 110.4309 14.39366174878648"}}, "geometry": {"type": "Point", "coordinates": [120.85645254393478, 45.284174350191286]}}]}